[Satellite]
VERSION=1.1
NAME=STARLINK-1203
NICKNAME=STARLINK-1203
TLE1=1 45202U 20012AA  20078.25001157  .00392907  00000-0  97635-2 0  9998
TLE2=2 45202  53.0001 124.4752 0001560  90.6180 243.3950 15.38240621  4995
STATUS=0
